[{"OBJECT_NAME":"STARLINK-31430","OBJECT_ID":"2024-062B","EPOCH":"2026-03-09T21:26:03.255936","MEAN_MOTION":15.30197499,"ECCENTRICITY":0.00010307,"INCLINATION":53.1582,"RA_OF_ASC_NODE":257.4825,"ARG_OF_PERICENTER":130.7995,"MEAN_ANOMALY":229.3095,"EPHEMERIS_TYPE":0,"CLASSIFICATION_TYPE":"U","NORAD_CAT_ID":59375,"ELEMENT_SET_NO":999,"REV_AT_EPOCH":10966,"BSTAR":-7.095733e-5,"MEAN_MOTION_DOT":-2.46e-5,"MEAN_MOTION_DDOT":0},{"OBJECT_NAME":"CZ-6A R\/B","OBJECT_ID":"2023-168B","EPOCH":"2026-03-09T21:13:08.722272","MEAN_MOTION":15.16100791,"ECCENTRICITY":0.00607667,"INCLINATION":97.7542,"RA_OF_ASC_NODE":104.7688,"ARG_OF_PERICENTER":339.2379,"MEAN_ANOMALY":20.6386,"EPHEMERIS_TYPE":0,"CLASSIFICATION_TYPE":"U","NORAD_CAT_ID":58200,"ELEMENT_SET_NO":999,"REV_AT_EPOCH":12979,"BSTAR":0.00029693841,"MEAN_MOTION_DOT":5.919e-5,"MEAN_MOTION_DDOT":0}]
